[{"OBJECT_NAME":"STARLINK-2726","OBJECT_ID":"2021-044AA","EPOCH":"2026-03-09T12:26:24.228672","MEAN_MOTION":15.06411714,"ECCENTRICITY":0.0001506,"INCLINATION":53.0553,"RA_OF_ASC_NODE":112.389,"ARG_OF_PERICENTER":91.3346,"MEAN_ANOMALY":268.7816,"EPHEMERIS_TYPE":0,"CLASSIFICATION_TYPE":"U","NORAD_CAT_ID":48662,"ELEMENT_SET_NO":999,"REV_AT_EPOCH":26382,"BSTAR":8.2584659e-5,"MEAN_MOTION_DOT":9.49e-6,"MEAN_MOTION_DDOT":0},{"OBJECT_NAME":"FENGYUN 1C DEB","OBJECT_ID":"1999-025CDM","EPOCH":"2026-03-09T06:24:55.905408","MEAN_MOTION":15.0430028,"ECCENTRICITY":0.00202824,"INCLINATION":99.0326,"RA_OF_ASC_NODE":346.4521,"ARG_OF_PERICENTER":26.5298,"MEAN_ANOMALY":133.8427,"EPHEMERIS_TYPE":0,"CLASSIFICATION_TYPE":"U","NORAD_CAT_ID":31714,"ELEMENT_SET_NO":999,"REV_AT_EPOCH":97342,"BSTAR":0.0098433176,"MEAN_MOTION_DOT":0.00140271,"MEAN_MOTION_DDOT":0}]
